[
    {
        "Altitude(m)": 705375.5659867114,
        "Argument of Periapsis(deg)": 0.009112096949301655,
        "Eccentricity": 0.0,
        "Inclination(deg)": 45.0,
        "Latitude(deg)": 36.12504614254944,
        "Longitude(deg)": 167.8384242207159,
        "Mean Anomaly(deg)": 123.77207331798466,
        "RAAN(deg)": 134.99139844683341,
        "Satellite Name": "Constellation 1 601",
        "Satellite Number": 601,
        "Semi-Major Axis(m)": 7083131.272910544,
        "Time(s)": 152
    },
    {
        "Altitude(m)": 705369.7112563374,
        "Argument of Periapsis(deg)": 0.009172044955547059,
        "Eccentricity": 0.0,
        "Inclination(deg)": 45.0,
        "Latitude(deg)": 36.09539904776989,
        "Longitude(deg)": 167.89984297132952,
        "Mean Anomaly(deg)": 123.83277445823455,
        "RAAN(deg)": 134.99134185766786,
        "Satellite Name": "Constellation 1 601",
        "Satellite Number": 601,
        "Semi-Major Axis(m)": 7083131.272910544,
        "Time(s)": 153
    },
    {
        "Altitude(m)": 705363.8536235993,
        "Argument of Periapsis(deg)": 0.009231992961792466,
        "Eccentricity": 0.0,
        "Inclination(deg)": 45.0,
        "Latitude(deg)": 36.06571601056187,
        "Longitude(deg)": 167.96121252015195,
        "Mean Anomaly(deg)": 123.89347559848447,
        "RAAN(deg)": 134.9912852685023,
        "Satellite Name": "Constellation 1 601",
        "Satellite Number": 601,
        "Semi-Major Axis(m)": 7083131.272910544,
        "Time(s)": 154
    },
    {
        "Altitude(m)": 705357.9931254212,
        "Argument of Periapsis(deg)": 0.009291940968037872,
        "Eccentricity": 0.0,
        "Inclination(deg)": 45.0,
        "Latitude(deg)": 36.035997096149096,
        "Longitude(deg)": 168.02253289831214,
        "Mean Anomaly(deg)": 123.95417673873436,
        "RAAN(deg)": 134.99122867933673,
        "Satellite Name": "Constellation 1 601",
        "Satellite Number": 601,
        "Semi-Major Axis(m)": 7083131.272910544,
        "Time(s)": 155
    },
    {
        "Altitude(m)": 705352.1297987476,
        "Argument of Periapsis(deg)": 0.009351888974283276,
        "Eccentricity": 0.0,
        "Inclination(deg)": 45.0,
        "Latitude(deg)": 36.006242369699166,
        "Longitude(deg)": 168.08380396908893,
        "Mean Anomaly(deg)": 124.01487787898428,
        "RAAN(deg)": 134.99117209017115,
        "Satellite Name": "Constellation 1 601",
        "Satellite Number": 601,
        "Semi-Major Axis(m)": 7083131.272910544,
        "Time(s)": 156
    },
    {
        "Altitude(m)": 705346.2636805574,
        "Argument of Periapsis(deg)": 0.00941183698052868,
        "Eccentricity": 0.0,
        "Inclination(deg)": 45.0,
        "Latitude(deg)": 35.97645189632228,
        "Longitude(deg)": 168.14502610029749,
        "Mean Anomaly(deg)": 124.07557901923415,
        "RAAN(deg)": 134.9911155010056,
        "Satellite Name": "Constellation 1 601",
        "Satellite Number": 601,
        "Semi-Major Axis(m)": 7083131.272910544,
        "Time(s)": 157
    },
    {
        "Altitude(m)": 705340.394807854,
        "Argument of Periapsis(deg)": 0.009471784986774088,
        "Eccentricity": 0.0,
        "Inclination(deg)": 45.0,
        "Latitude(deg)": 35.94662574107263,
        "Longitude(deg)": 168.20619915570586,
        "Mean Anomaly(deg)": 124.13628015948409,
        "RAAN(deg)": 134.99105891184,
        "Satellite Name": "Constellation 1 601",
        "Satellite Number": 601,
        "Semi-Major Axis(m)": 7083131.272910544,
        "Time(s)": 158
    },
    {
        "Altitude(m)": 705334.5232176789,
        "Argument of Periapsis(deg)": 0.009531732993019492,
        "Eccentricity": 0.0,
        "Inclination(deg)": 45.0,
        "Latitude(deg)": 35.916763968947045,
        "Longitude(deg)": 168.26732316742172,
        "Mean Anomaly(deg)": 124.19698129973395,
        "RAAN(deg)": 134.99100232267443,
        "Satellite Name": "Constellation 1 601",
        "Satellite Number": 601,
        "Semi-Major Axis(m)": 7083131.272910544,
        "Time(s)": 159
    },
    {
        "Altitude(m)": 705328.648947093,
        "Argument of Periapsis(deg)": 0.009591680999264898,
        "Eccentricity": 0.0,
        "Inclination(deg)": 45.0,
        "Latitude(deg)": 35.88686664488505,
        "Longitude(deg)": 168.3283981677943,
        "Mean Anomaly(deg)": 124.25768243998385,
        "RAAN(deg)": 134.99094573350888,
        "Satellite Name": "Constellation 1 601",
        "Satellite Number": 601,
        "Semi-Major Axis(m)": 7083131.272910544,
        "Time(s)": 160
    },
    {
        "Altitude(m)": 705322.7720331938,
        "Argument of Periapsis(deg)": 0.009651629005510304,
        "Eccentricity": 0.0,
        "Inclination(deg)": 45.0,
        "Latitude(deg)": 35.8569338337684,
        "Longitude(deg)": 168.38942418941284,
        "Mean Anomaly(deg)": 124.31838358023379,
        "RAAN(deg)": 134.99088914434333,
        "Satellite Name": "Constellation 1 601",
        "Satellite Number": 601,
        "Semi-Major Axis(m)": 7083131.272910544,
        "Time(s)": 161
    },
    {
        "Altitude(m)": 705316.8925131019,
        "Argument of Periapsis(deg)": 0.00971157701175571,
        "Eccentricity": 0.0,
        "Inclination(deg)": 45.0,
        "Latitude(deg)": 35.826965600421445,
        "Longitude(deg)": 168.45040126510497,
        "Mean Anomaly(deg)": 124.37908472048363,
        "RAAN(deg)": 134.99083255517775,
        "Satellite Name": "Constellation 1 601",
        "Satellite Number": 601,
        "Semi-Major Axis(m)": 7083131.272910544,
        "Time(s)": 162
    },
    {
        "Altitude(m)": 705311.0104239731,
        "Argument of Periapsis(deg)": 0.009771525018001118,
        "Eccentricity": 0.0,
        "Inclination(deg)": 45.0,
        "Latitude(deg)": 35.79696200961033,
        "Longitude(deg)": 168.51132925983913,
        "Mean Anomaly(deg)": 124.43978586073358,
        "RAAN(deg)": 134.99077596601217,
        "Satellite Name": "Constellation 1 601",
        "Satellite Number": 601,
        "Semi-Major Axis(m)": 7083131.272910544,
        "Time(s)": 163
    },
    {
        "Altitude(m)": 705305.1258029875,
        "Argument of Periapsis(deg)": 0.00983147302424652,
        "Eccentricity": 0.0,
        "Inclination(deg)": 45.0,
        "Latitude(deg)": 35.766923126042386,
        "Longitude(deg)": 168.5722085431106,
        "Mean Anomaly(deg)": 124.50048700098348,
        "RAAN(deg)": 134.99071937684658,
        "Satellite Name": "Constellation 1 601",
        "Satellite Number": 601,
        "Semi-Major Axis(m)": 7083131.272910544,
        "Time(s)": 164
    },
    {
        "Altitude(m)": 705299.2386873553,
        "Argument of Periapsis(deg)": 0.009891421030491928,
        "Eccentricity": 0.0,
        "Inclination(deg)": 45.0,
        "Latitude(deg)": 35.736849014367145,
        "Longitude(deg)": 168.6330389803585,
        "Mean Anomaly(deg)": 124.56118814123333,
        "RAAN(deg)": 134.99066278768103,
        "Satellite Name": "Constellation 1 601",
        "Satellite Number": 601,
        "Semi-Major Axis(m)": 7083131.272910544,
        "Time(s)": 165
    },
    {
        "Altitude(m)": 705293.3491143123,
        "Argument of Periapsis(deg)": 0.009951369036737332,
        "Eccentricity": 0.0,
        "Inclination(deg)": 45.0,
        "Latitude(deg)": 35.706739739175,
        "Longitude(deg)": 168.69382060535258,
        "Mean Anomaly(deg)": 124.62188928148326,
        "RAAN(deg)": 134.99060619851548,
        "Satellite Name": "Constellation 1 601",
        "Satellite Number": 601,
        "Semi-Major Axis(m)": 7083131.272910544,
        "Time(s)": 166
    },
    {
        "Altitude(m)": 705287.4571211255,
        "Argument of Periapsis(deg)": 0.010011317042982738,
        "Eccentricity": 0.0,
        "Inclination(deg)": 45.0,
        "Latitude(deg)": 35.676595364997674,
        "Longitude(deg)": 168.75455345209426,
        "Mean Anomaly(deg)": 124.68259042173311,
        "RAAN(deg)": 134.9905496093499,
        "Satellite Name": "Constellation 1 601",
        "Satellite Number": 601,
        "Semi-Major Axis(m)": 7083131.272910544,
        "Time(s)": 167
    },
    {
        "Altitude(m)": 705281.5627450868,
        "Argument of Periapsis(deg)": 0.010071265049228144,
        "Eccentricity": 0.0,
        "Inclination(deg)": 45.0,
        "Latitude(deg)": 35.646415956307436,
        "Longitude(deg)": 168.81523755481635,
        "Mean Anomaly(deg)": 124.74329156198311,
        "RAAN(deg)": 134.99049302018435,
        "Satellite Name": "Constellation 1 601",
        "Satellite Number": 601,
        "Semi-Major Axis(m)": 7083131.272910544,
        "Time(s)": 168
    },
    {
        "Altitude(m)": 705275.6660235203,
        "Argument of Periapsis(deg)": 0.01013121305547355,
        "Eccentricity": 0.0,
        "Inclination(deg)": 45.0,
        "Latitude(deg)": 35.616201577517224,
        "Longitude(deg)": 168.87587294798087,
        "Mean Anomaly(deg)": 124.80399270223295,
        "RAAN(deg)": 134.99043643101876,
        "Satellite Name": "Constellation 1 601",
        "Satellite Number": 601,
        "Semi-Major Axis(m)": 7083131.272910544,
        "Time(s)": 169
    },
    {
        "Altitude(m)": 705269.7669937756,
        "Argument of Periapsis(deg)": 0.010191161061718957,
        "Eccentricity": 0.0,
        "Inclination(deg)": 45.0,
        "Latitude(deg)": 35.58595229298025,
        "Longitude(deg)": 168.93645966627835,
        "Mean Anomaly(deg)": 124.86469384248285,
        "RAAN(deg)": 134.99037984185318,
        "Satellite Name": "Constellation 1 601",
        "Satellite Number": 601,
        "Semi-Major Axis(m)": 7083131.272910544,
        "Time(s)": 170
    }
]